start=new Date('2022-09-04T00:00:00.000Z').valueOf();
sats=[{"EPOCH":"2022-09-03T21:37:53.015520","CENTER_NAME":"EARTH","ARG_OF_PERICENTER":"95.4759","SEMIMAJOR_AXIS":"6925.352","MEAN_MOTION_DOT":"0.00003661","RCS_SIZE":"LARGE","TLE_LINE1":"1 46567U 20070AM  22246.90130805  .00003661  00000-0  26457-3 0  9992","OBJECT_TYPE":"PAYLOAD","DECAY_DATE":null,"SITE":"AFETR","MEAN_MOTION_DDOT":"0.0000000000000","PERIOD":"95.592","MEAN_MOTION":"15.06398806","LAUNCH_DATE":"2020-10-06","APOAPSIS":"548.264","CLASSIFICATION_TYPE":"U","OBJECT_ID":"2020-070AM","OBJECT_NAME":"STARLINK-1741","PERIAPSIS":"546.170","RA_OF_ASC_NODE":"155.2702","TIME_SYSTEM":"UTC","MEAN_ANOMALY":"264.6403","MEAN_ELEMENT_THEORY":"SGP4","FILE":"3556957","BSTAR":"0.00026457000000","REF_FRAME":"TEME","ECCENTRICITY":"0.00015120","COUNTRY_CODE":"US","GP_ID":"211669113","TLE_LINE2":"2 46567  53.0554 155.2702 0001512  95.4759 264.6403 15.06398806106448","EPHEMERIS_TYPE":"0","NORAD_CAT_ID":"46567","INCLINATION":"53.0554","ELEMENT_SET_NO":"999","REV_AT_EPOCH":"10644"},{"RA_OF_ASC_NODE":"155.2130","PERIAPSIS":"545.908","OBJECT_ID":"2020-070AP","OBJECT_NAME":"STARLINK-1747","APOAPSIS":"548.455","CLASSIFICATION_TYPE":"U","LAUNCH_DATE":"2020-10-06","MEAN_MOTION":"15.06410503","PERIOD":"95.591","MEAN_MOTION_DDOT":"0.0000000000000","SITE":"AFETR","DECAY_DATE":null,"OBJECT_TYPE":"PAYLOAD","TLE_LINE1":"1 46569U 20070AP  22246.91604811  .00001313  00000-0  10698-3 0  9990","RCS_SIZE":"LARGE","MEAN_MOTION_DOT":"0.00001313","SEMIMAJOR_AXIS":"6925.316","ARG_OF_PERICENTER":"64.3868","CENTER_NAME":"EARTH","EPOCH":"2022-09-03T21:59:06.556704","REV_AT_EPOCH":"10644","ELEMENT_SET_NO":"999","INCLINATION":"53.0555","NORAD_CAT_ID":"46569","EPHEMERIS_TYPE":"0","TLE_LINE2":"2 46569  53.0555 155.2130 0001839  64.3868 295.7311 15.06410503106446","GP_ID":"211669356","COUNTRY_CODE":"US","ECCENTRICITY":"0.00018390","REF_FRAME":"TEME","BSTAR":"0.00010698000000","FILE":"3556957","MEAN_ANOMALY":"295.7311","MEAN_ELEMENT_THEORY":"SGP4","TIME_SYSTEM":"UTC"},{"ECCENTRICITY":"0.00020830","TLE_LINE2":"2 46570  53.0547 157.4149 0002083  42.7327 317.3825 15.09108011106346","GP_ID":"211633074","COUNTRY_CODE":"US","BSTAR":"0.00112010000000","FILE":"3556494","MEAN_ELEMENT_THEORY":"SGP4","MEAN_ANOMALY":"317.3825","TIME_SYSTEM":"UTC","REF_FRAME":"TEME","INCLINATION":"53.0547","ELEMENT_SET_NO":"999","REV_AT_EPOCH":"10634","EPHEMERIS_TYPE":"0","NORAD_CAT_ID":"46570","RCS_SIZE":"LARGE","TLE_LINE1":"1 46570U 20070AQ  22246.18995324  .00017716  00000-0  11201-2 0  9997","MEAN_MOTION_DDOT":"0.0000000000000","SITE":"AFETR","DECAY_DATE":null,"OBJECT_TYPE":"PAYLOAD","CENTER_NAME":"EARTH","EPOCH":"2022-09-03T04:33:31.959936","MEAN_MOTION_DOT":"0.00017716","SEMIMAJOR_AXIS":"6917.061","ARG_OF_PERICENTER":"42.7327","OBJECT_NAME":"STARLINK-1748","OBJECT_ID":"2020-070AQ","CLASSIFICATION_TYPE":"U","APOAPSIS":"540.367","LAUNCH_DATE":"2020-10-06","MEAN_MOTION":"15.09108011","RA_OF_ASC_NODE":"157.4149","PERIAPSIS":"537.485","PERIOD":"95.421"},{"ECCENTRICITY":"0.00020020","TLE_LINE2":"2 46572  53.0542 175.6248 0002002  71.9364 288.1843 15.06402006106142","GP_ID":"211668363","COUNTRY_CODE":"US","BSTAR":"0.00005545400000","FILE":"3556957","MEAN_ANOMALY":"288.1843","MEAN_ELEMENT_THEORY":"SGP4","TIME_SYSTEM":"UTC","REF_FRAME":"TEME","ELEMENT_SET_NO":"999","INCLINATION":"53.0542","REV_AT_EPOCH":"10614","EPHEMERIS_TYPE":"0","NORAD_CAT_ID":"46572","TLE_LINE1":"1 46572U 20070AS  22246.82111244  .00000544  00000-0  55454-4 0  9992","RCS_SIZE":"LARGE","MEAN_MOTION_DDOT":"0.0000000000000","DECAY_DATE":null,"SITE":"AFETR","OBJECT_TYPE":"PAYLOAD","CENTER_NAME":"EARTH","EPOCH":"2022-09-03T19:42:24.114816","MEAN_MOTION_DOT":"0.00000544","SEMIMAJOR_AXIS":"6925.342","ARG_OF_PERICENTER":"71.9364","OBJECT_ID":"2020-070AS","OBJECT_NAME":"STARLINK-1531","APOAPSIS":"548.594","CLASSIFICATION_TYPE":"U","LAUNCH_DATE":"2020-10-06","MEAN_MOTION":"15.06402006","RA_OF_ASC_NODE":"175.6248","PERIAPSIS":"545.821","PERIOD":"95.592"},{"PERIOD":"95.593","RA_OF_ASC_NODE":"163.7070","PERIAPSIS":"545.986","CLASSIFICATION_TYPE":"U","APOAPSIS":"548.521","OBJECT_NAME":"STARLINK-1650","OBJECT_ID":"2020-070AT","MEAN_MOTION":"15.06386862","LAUNCH_DATE":"2020-10-06","SEMIMAJOR_AXIS":"6925.389","MEAN_MOTION_DOT":"0.00000247","ARG_OF_PERICENTER":"59.0701","CENTER_NAME":"EARTH","EPOCH":"2022-09-03T03:14:31.227360","MEAN_MOTION_DDOT":"0.0000000000000","OBJECT_TYPE":"PAYLOAD","DECAY_DATE":null,"SITE":"AFETR","TLE_LINE1":"1 46573U 20070AT  22246.13508365  .00000247  00000-0  35477-4 0  9994","RCS_SIZE":"LARGE","NORAD_CAT_ID":"46573","EPHEMERIS_TYPE":"0","REV_AT_EPOCH":"10626","ELEMENT_SET_NO":"999","INCLINATION":"53.0556","REF_FRAME":"TEME","FILE":"3556752","BSTAR":"0.00003547700000","TIME_SYSTEM":"UTC","MEAN_ANOMALY":"301.0468","MEAN_ELEMENT_THEORY":"SGP4","TLE_LINE2":"2 46573  53.0556 163.7070 0001830  59.0701 301.0468 15.06386862106261","COUNTRY_CODE":"US","GP_ID":"211644443","ECCENTRICITY":"0.00018300"},{"PERIOD":"95.592","LAUNCH_DATE":"2020-10-06","MEAN_MOTION":"15.06395015","OBJECT_ID":"2020-070AU","OBJECT_NAME":"STARLINK-1660","CLASSIFICATION_TYPE":"U","APOAPSIS":"548.216","PERIAPSIS":"546.242","RA_OF_ASC_NODE":"163.4934","EPOCH":"2022-09-03T04:30:11.331360","CENTER_NAME":"EARTH","ARG_OF_PERICENTER":"71.8020","MEAN_MOTION_DOT":"-0.00000581","SEMIMAJOR_AXIS":"6925.364","TLE_LINE1":"1 46574U 20070AU  22246.18763115 -.00000581  00000-0 -20094-4 0  9998","RCS_SIZE":"LARGE","SITE":"AFETR","DECAY_DATE":null,"OBJECT_TYPE":"PAYLOAD","MEAN_MOTION_DDOT":"0.0000000000000","EPHEMERIS_TYPE":"0","NORAD_CAT_ID":"46574","ELEMENT_SET_NO":"999","INCLINATION":"53.0552","REV_AT_EPOCH":"10626","MEAN_ANOMALY":"288.3124","MEAN_ELEMENT_THEORY":"SGP4","TIME_SYSTEM":"UTC","FILE":"3556494","BSTAR":"-0.00002009400000","REF_FRAME":"TEME","ECCENTRICITY":"0.00014250","GP_ID":"211632328","COUNTRY_CODE":"US","TLE_LINE2":"2 46574  53.0552 163.4934 0001425  71.8020 288.3124 15.06395015106266"},{"RA_OF_ASC_NODE":"135.2706","PERIAPSIS":"546.029","LAUNCH_DATE":"2020-10-06","MEAN_MOTION":"15.06404060","OBJECT_NAME":"STARLINK-1675","OBJECT_ID":"2020-070AV","APOAPSIS":"548.373","CLASSIFICATION_TYPE":"U","PERIOD":"95.592","DECAY_DATE":null,"SITE":"AFETR","OBJECT_TYPE":"PAYLOAD","MEAN_MOTION_DDOT":"0.0000000000000","TLE_LINE1":"1 46575U 20070AV  22246.90683971  .00000005  00000-0  19223-4 0  9991","RCS_SIZE":"LARGE","ARG_OF_PERICENTER":"60.0918","MEAN_MOTION_DOT":"0.00000005","SEMIMAJOR_AXIS":"6925.336","EPOCH":"2022-09-03T21:45:50.950944","CENTER_NAME":"EARTH","REV_AT_EPOCH":"10671","ELEMENT_SET_NO":"999","INCLINATION":"53.0559","NORAD_CAT_ID":"46575","EPHEMERIS_TYPE":"0","GP_ID":"211667614","COUNTRY_CODE":"US","TLE_LINE2":"2 46575  53.0559 135.2706 0001692  60.0918 300.0239 15.06404060106710","ECCENTRICITY":"0.00016920","REF_FRAME":"TEME","MEAN_ANOMALY":"300.0239","MEAN_ELEMENT_THEORY":"SGP4","TIME_SYSTEM":"UTC","BSTAR":"0.00001922300000","FILE":"3556957"},{"RA_OF_ASC_NODE":"160.2389","PERIAPSIS":"545.976","LAUNCH_DATE":"2020-10-06","MEAN_MOTION":"15.06414809","OBJECT_NAME":"STARLINK-1677","OBJECT_ID":"2020-070AW","APOAPSIS":"548.361","CLASSIFICATION_TYPE":"U","PERIOD":"95.591","DECAY_DATE":null,"SITE":"AFETR","OBJECT_TYPE":"PAYLOAD","MEAN_MOTION_DDOT":"0.0000000000000","TLE_LINE1":"1 46576U 20070AW  22246.91005840  .00001855  00000-0  14337-3 0  9990","RCS_SIZE":"LARGE","ARG_OF_PERICENTER":"62.8456","MEAN_MOTION_DOT":"0.00001855","SEMIMAJOR_AXIS":"6925.303","EPOCH":"2022-09-03T21:50:29.045760","CENTER_NAME":"EARTH","REV_AT_EPOCH":"10637","INCLINATION":"53.0528","ELEMENT_SET_NO":"999","NORAD_CAT_ID":"46576","EPHEMERIS_TYPE":"0","GP_ID":"211667864","COUNTRY_CODE":"US","TLE_LINE2":"2 46576  53.0528 160.2389 0001722  62.8456 297.2708 15.06414809106375","ECCENTRICITY":"0.00017220","REF_FRAME":"TEME","MEAN_ELEMENT_THEORY":"SGP4","MEAN_ANOMALY":"297.2708","TIME_SYSTEM":"UTC","BSTAR":"0.00014337000000","FILE":"3556957"},{"LAUNCH_DATE":"2020-10-06","MEAN_MOTION":"15.06390959","OBJECT_NAME":"STARLINK-1682","OBJECT_ID":"2020-070AX","APOAPSIS":"548.334","CLASSIFICATION_TYPE":"U","PERIAPSIS":"546.148","RA_OF_ASC_NODE":"160.7005","PERIOD":"95.593","RCS_SIZE":"LARGE","TLE_LINE1":"1 46577U 20070AX  22246.80686545  .00001744  00000-0  13601-3 0  9996","SITE":"AFETR","DECAY_DATE":null,"OBJECT_TYPE":"PAYLOAD","MEAN_MOTION_DDOT":"0.0000000000000","EPOCH":"2022-09-03T19:21:53.174880","CENTER_NAME":"EARTH","ARG_OF_PERICENTER":"74.7881","MEAN_MOTION_DOT":"0.00001744","SEMIMAJOR_AXIS":"6925.376","INCLINATION":"53.0542","ELEMENT_SET_NO":"999","REV_AT_EPOCH":"10635","EPHEMERIS_TYPE":"0","NORAD_CAT_ID":"46577","ECCENTRICITY":"0.00015780","GP_ID":"211669114","COUNTRY_CODE":"US","TLE_LINE2":"2 46577  53.0542 160.7005 0001578  74.7881 285.3282 15.06390959106357","MEAN_ANOMALY":"285.3282","MEAN_ELEMENT_THEORY":"SGP4","TIME_SYSTEM":"UTC","FILE":"3556957","BSTAR":"0.00013601000000","REF_FRAME":"TEME"},{"CLASSIFICATION_TYPE":"U","APOAPSIS":"548.438","OBJECT_NAME":"STARLINK-1683","OBJECT_ID":"2020-070AY","MEAN_MOTION":"15.06399645","LAUNCH_DATE":"2020-10-06","RA_OF_ASC_NODE":"146.1469","PERIAPSIS":"545.992","PERIOD":"95.592","RCS_SIZE":"LARGE","TLE_LINE1":"1 46578U 20070AY  22246.72163519  .00001657  00000-0  13015-3 0  9991","MEAN_MOTION_DDOT":"0.0000000000000","OBJECT_TYPE":"PAYLOAD","SITE":"AFETR","DECAY_DATE":null,"CENTER_NAME":"EARTH","EPOCH":"2022-09-03T17:19:09.280416","SEMIMAJOR_AXIS":"6925.350","MEAN_MOTION_DOT":"0.00001657","ARG_OF_PERICENTER":"72.3557","INCLINATION":"53.0534","ELEMENT_SET_NO":"999","REV_AT_EPOCH":"10655","EPHEMERIS_TYPE":"0","NORAD_CAT_ID":"46578","ECCENTRICITY":"0.00017660","TLE_LINE2":"2 46578  53.0534 146.1469 0001766  72.3557 287.7625 15.06399645106554","COUNTRY_CODE":"US","GP_ID":"211669357","FILE":"3556957","BSTAR":"0.00013015000000","TIME_SYSTEM":"UTC","MEAN_ANOMALY":"287.7625","MEAN_ELEMENT_THEORY":"SGP4","REF_FRAME":"TEME"}];
